ONEWEB-0555             
1 56057U 23043M   25364.64600620  .00000115  00000+0  26745-3 0  9992
2 56057  87.9044 262.3282 0001533  94.7507 265.3799 13.16593705136782
ONEWEB-0557             
1 56058U 23043N   25364.28027372 -.00000065  00000+0 -20469-3 0  9993
2 56058  87.9044 262.4133 0002632  96.5889 263.5542 13.16592955136730
ONEWEB-0558             
1 56059U 23043P   25364.48952863  .00000141  00000+0  30988-3 0  9998
2 56059  87.9221 277.6328 0001377  60.0148 300.1123 13.21825481135956
ONEWEB-0559             
1 56060U 23043Q   25364.47799706  .00000120  00000+0  25981-3 0  9998
2 56060  87.9223 277.6290 0001689  65.8554 294.2756 13.21825926135968
ONEWEB-0566             
1 56061U 23043R   25364.47141416  .00000199  00000+0  44966-3 0  9998
2 56061  87.9226 277.6282 0001539  61.7859 298.3430 13.21827490135940
ONEWEB-0568             
1 56062U 23043S   25364.44967511  .00000005  00000+0 -19948-4 0  9998
2 56062  87.9045 262.3682 0001501  85.0599 275.0704 13.16592899136778
ONEWEB-0574             
1 56063U 23043T   25364.46483281  .00000127  00000+0  27636-3 0  9994
2 56063  87.9225 277.6171 0001836  76.9965 283.1374 13.21827970135980
ONEWEB-0575             
1 56064U 23043U   25364.44334092 -.00000025  00000+0 -98273-4 0  9993
2 56064  87.9043 262.3685 0001882  83.5087 276.6259 13.16593169136760
ONEWEB-0576             
1 56065U 23043V   25364.65234089  .00000019  00000+0  15711-4 0  9999
2 56065  87.9047 262.3286 0001748  80.1006 280.0323 13.16593345136786
ONEWEB-0577             
1 56066U 23043W   25364.65866850  .00000001  00000+0 -30436-4 0  9990
2 56066  87.9048 262.3267 0002314  83.9633 276.1762 13.16593192136811
ONEWEB-0578             
1 56067U 23043X   25364.30028772  .00000043  00000+0  71544-4 0  9996
2 56067  87.9227 277.6609 0001575  83.2786 276.8527 13.21825854135926
ONEWEB-0579             
1 56068U 23043Y   25364.21468588 -.00000113  00000+0 -30442-3 0  9991
2 56068  87.9229 277.6657 0001750  65.1228 295.0087 13.21828517135920
ONEWEB-0581             
1 56069U 23043Z   25364.43701021  .00000065  00000+0  13679-3 0  9995
2 56069  87.9042 262.3837 0001992  75.8620 284.2733 13.16593609136752
ONEWEB-0609             
1 56070U 23043AA  25364.56466421  .00000261  00000+0  65918-3 0  9994
2 56070  87.9007 292.8695 0001710  68.0830 292.0482 13.15548163134266
ONEWEB-0613             
1 56071U 23043AB  25364.55990530  .00000236  00000+0  59369-3 0  9992
2 56071  87.9006 292.8821 0001714  66.0634 294.0675 13.15547481134269
ONEWEB-0630             
1 56072U 23043AC  25364.55514941  .00000110  00000+0  25725-3 0  9991
2 56072  87.9005 292.8540 0001747  65.3220 294.8092 13.15547133134250
ONEWEB-0632             
1 56073U 23043AD  25364.55040051  .00000126  00000+0  30105-3 0  9993
2 56073  87.9002 292.8727 0001894  75.1054 285.0286 13.15549036134253
ONEWEB-0633             
1 56074U 23043AE  25364.31588937  .00000000  00000+0 -33802-4 0  9998
2 56074  87.9004 292.8822 0001594  60.2836 299.8452 13.15547708134209
ONEWEB-0634             
1 56075U 23043AF  25364.30162634 -.00000098  00000+0 -29404-3 0  9990
2 56075  87.9007 292.9364 0001415  78.5057 281.6233 13.15547809134190
ONEWEB-0635             
1 56076U 23043AG  25364.37293312 -.00000034  00000+0 -12388-3 0  9999
2 56076  87.9004 292.8754 0002051  77.2694 282.8665 13.15547801134239
ONEWEB-0636             
1 56077U 23043AH  25364.36501193 -.00000063  00000+0 -20181-3 0  9990
2 56077  87.9004 292.8942 0001941  77.4319 282.7028 13.15548198134212
ONEWEB-0637             
1 56078U 23043AJ  25364.35866779 -.00000005  00000+0 -46655-4 0  9995
2 56078  87.9006 292.9121 0001788  84.1604 275.9730 13.15549698134238
ONEWEB-0647             
1 56079U 23043AK  25364.35392136  .00000094  00000+0  21621-3 0  9998
2 56079  87.9007 292.9261 0001865  72.8492 287.2843 13.15547552134227
ONEWEB-0651             
1 56080U 23043AL  25364.50128532  .00000189  00000+0  46782-3 0  9994
2 56080  87.9009 292.8903 0001909  80.6041 279.5305 13.15547731135440
ONEWEB-0718             
1 56081U 23043AM  25364.49652127  .00000191  00000+0  47280-3 0  9992
2 56081  87.9006 292.8718 0001157  80.9478 279.1783 13.15550505134251
ONEWEB-0561             
1 56710U 23068A   25364.56316721  .00000137  00000+0  30578-3 0  9995
2 56710  87.9213 308.0819 0002220  76.0453 284.0928 13.20771015127247
ONEWEB-0668             
1 56711U 23068B   25364.48767491  .00000132  00000+0  31210-3 0  9990
2 56711  87.9055 262.3484 0001290  94.0414 266.0864 13.16593592129580
ONEWEB-0676             
1 56712U 23068C   25364.41959551  .00000105  00000+0  23993-3 0  9993
2 56712  87.9046 262.3821 0001872  78.4447 281.6894 13.16597097129494
ONEWEB-0677             
1 56713U 23068D   25364.55211141  .00000081  00000+0  16630-3 0  9998
2 56713  87.9224 308.0691 0001868  82.5254 277.6091 13.20772513127544
ONEWEB-0678             
1 56714U 23068E   25364.31272307 -.00000050  00000+0 -16555-3 0  9998
2 56714  87.9014 292.8855 0001636  77.3899 282.7414 13.15547511127081
ONEWEB-0679             
1 56715U 23068F   25364.45442553  .00000031  00000+0  46346-4 0  9995
2 56715  87.9040 262.3579 0001755  94.0887 266.0445 13.16592559129524
ONEWEB-0680             
1 56716U 23068G   25364.29368598 -.00000013  00000+0 -63772-4 0  9998
2 56716  87.9230 277.6491 0001440  96.4200 263.7098 13.21827524128788
ONEWEB-0681             
1 56717U 23068H   25364.50021476  .00000084  00000+0  17153-3 0  9991
2 56717  87.9221 277.6222 0002720  80.9818 279.1623 13.21827034128800
ONEWEB-0682             
1 56718U 23068J   25364.56704409  .00000166  00000+0  40699-3 0  9994
2 56718  87.9003 292.8476 0001609  92.4528 267.6787 13.15548516127282
ONEWEB-0683             
1 56719U 23068K   25364.36025669 -.00000052  00000+0 -17205-3 0  9990
2 56719  87.9017 292.8749 0001563  81.3093 278.8215 13.15546965127224
ONEWEB-0684             
1 56720U 23068L   25364.36817278 -.00000098  00000+0 -29313-3 0  9990
2 56720  87.9014 292.8674 0001889  30.0811 330.0428 13.15548285127055
ONEWEB-0686             
1 56721U 23068M   25364.64941117  .00000048  00000+0  93584-4 0  9997
2 56721  87.9034 262.3697 0001202  71.4983 288.6278 13.15706247129533
ONEWEB-0694             
1 56722U 23068N   25364.64917579  .00000046  00000+0  85474-4 0  9990
2 56722  87.9053 262.2994 0001336  90.8538 269.2746 13.16593949129598
ONEWEB-0696             
1 56723U 23068P   25364.55356456  .00000142  00000+0  34380-3 0  9998
2 56723  87.9002 292.8818 0001837  65.0136 295.1185 13.15547583127192
ONEWEB-0703             
1 56724U 23068Q   25364.33490137  .00000266  00000+0  67313-3 0  9999
2 56724  87.9001 292.9067 0002538  57.1537 302.9837 13.15546963127052
ONEWEB-0721             
1 56725U 23068R   25364.34347902  .00000114  00000+0  23789-3 0  9993
2 56725  86.6812 139.3861 0001439 102.2946 257.8349 13.22455642135629
ONEWEB-0015             
1 61594U 24188A   25364.61729847 -.00000031  00000+0 -12321-3 0  9999
2 61594  87.8832  54.6638 0002320 106.5274 253.6109 13.11415647 62363
ONEWEB-0687             
1 61595U 24188B   25364.57655214 -.00000009  00000+0 -56415-4 0  9999
2 61595  87.9084  39.4165 0001970 113.6415 246.4924 13.17648695 63695
ONEWEB-0688             
1 61596U 24188C   25364.52930551  .00000060  00000+0  12214-3 0  9998
2 61596  87.9079  39.4259 0002994 109.0522 251.0934 13.17649172 63682
ONEWEB-0689             
1 61597U 24188D   25364.57491920 -.00000089  00000+0 -28596-3 0  9999
2 61597  87.8838  54.6057 0001645 111.1235 249.0069 13.11418303 62350
ONEWEB-0690             
1 61598U 24188E   25364.58509830  .00000328  00000+0  89101-3 0  9994
2 61598  87.8852  54.6211 0002011  79.1125 281.0230 13.11417244 62537
ONEWEB-0691             
1 61599U 24188F   25364.58000953  .00000124  00000+0  31286-3 0  9992
2 61599  87.8851  54.5196 0002167 107.0403 253.0963 13.11417169 62381
ONEWEB-0692             
1 61600U 24188G   25364.60035480  .00000489  00000+0  13438-2 0  9993
2 61600  87.8834  54.6604 0000853 100.4058 259.7166 13.11415390 62374
ONEWEB-0693             
1 61601U 24188H   25364.61704411  .00000052  00000+0  99525-4 0  9991
2 61601  87.9084  39.4287 0002366  79.6071 280.5328 13.17650686 63686
ONEWEB-0695             
1 61602U 24188J   25364.57661490 -.00000032  00000+0 -12672-3 0  9993
2 61602  87.8842  54.6547 0001362 114.0801 246.0469 13.11417964 62367
ONEWEB-0697             
1 61603U 24188K   25364.60883134  .00000287  00000+0  77479-3 0  9995
2 61603  87.8835  54.6381 0000999  96.5141 263.6101 13.11413281 62357
ONEWEB-0698             
1 61604U 24188L   25364.58679900  .00000394  00000+0  10748-2 0  9991
2 61604  87.8837  54.6577 0001357  55.8338 304.2918 13.11416364 62377
ONEWEB-0699             
1 61605U 24188M   25364.61814589 -.00000111  00000+0 -35433-3 0  9998
2 61605  87.8806  69.8663 0001050  95.3274 264.7973 13.10377395 61230
ONEWEB-0700             
1 61606U 24188N   25364.61981901  .00000037  00000+0  68599-4 0  9997
2 61606  87.8816  69.7532 0001229 125.3449 234.7793 13.10378168 61227
ONEWEB-0701             
1 61607U 24188P   25364.63642644  .00000656  00000+0  18429-2 0  9990
2 61607  87.8799  69.8632 0000891  94.7489 265.3740 13.10374071 61239
ONEWEB-0702             
1 61608U 24188Q   25364.63255251 -.00000540  00000+0 -15598-2 0  9993
2 61608  87.8827  54.5324 0000771 117.3005 242.8202 13.11416494 62392
ONEWEB-0704             
1 61609U 24188R   25364.62479088  .00000292  00000+0  79906-3 0  9995
2 61609  87.8820  69.8327 0000840 125.1771 234.9435 13.10377784 61219
ONEWEB-0705             
1 61610U 24188S   25364.62978035  .00000424  00000+0  11768-2 0  9991
2 61610  87.8805  69.8522 0001928 139.3380 220.7892 13.10375428 53384
ONEWEB-0706             
1 61611U 24188T   25364.61482699 -.00000252  00000+0 -75892-3 0  9997
2 61611  87.8798  69.8745 0001281 122.0563 238.0689 13.10377057 61304
